{
  "type": "FeatureCollection",
  "features": [
    {
      "type": "Feature",
      "properties": {
        "norad_id": 50032,
        "name": "COSMOS 1408 DEB",
        "group": "cosmos-1408-debris",
        "lat": 67.74318170245594,
        "lon": 78.92173829552995,
        "alt_km": 431.4078003447694,
        "timestamp": "2025-12-10T23:33:13.088959+00:00",
        "meta_object_name": "COSMOS 1408 DEB",
        "meta_object_id": "1982-092RU",
        "meta_epoch": "2025-12-10T12:22:45.329088",
        "meta_mean_motion": 15.45657785,
        "meta_eccentricity": 0.00150731,
        "meta_inclination": 82.5641,
        "meta_ra_of_asc_node": 60.788,
        "meta_arg_of_pericenter": 217.1445,
        "meta_mean_anomaly": 142.8762,
        "meta_ephemeris_type": 0,
        "meta_classification_type": "U",
        "meta_norad_cat_id": 50032,
        "meta_element_set_no": 999,
        "meta_rev_at_epoch": 22569,
        "meta_bstar": 0.00015993678,
        "meta_mean_motion_dot": 7.781e-05,
        "meta_mean_motion_ddot": 0,
        "tle_line1": "1 50032U 82092RU  25344.51580242  .00007781  00000+0  15994-3 0  9999",
        "tle_line2": "2 50032  82.5641  60.7880 0015073 217.1445 142.8762 15.45657785225694"
      },
      "geometry": {
        "type": "Point",
        "coordinates": [
          78.92173829552995,
          67.74318170245594
        ]
      }
    },
    {
      "type": "Feature",
      "properties": {
        "norad_id": 50058,
        "name": "COSMOS 1408 DEB",
        "group": "cosmos-1408-debris",
        "lat": 24.56807131182792,
        "lon": -112.21940852622876,
        "alt_km": 368.70131779992244,
        "timestamp": "2025-12-10T23:33:13.088976+00:00",
        "meta_object_name": "COSMOS 1408 DEB",
        "meta_object_id": "1982-092SW",
        "meta_epoch": "2025-12-10T07:32:15.069120",
        "meta_mean_motion": 15.63871955,
        "meta_eccentricity": 0.001649,
        "meta_inclination": 82.6126,
        "meta_ra_of_asc_node": 71.8794,
        "meta_arg_of_pericenter": 107.0459,
        "meta_mean_anomaly": 253.2608,
        "meta_ephemeris_type": 0,
        "meta_classification_type": "U",
        "meta_norad_cat_id": 50058,
        "meta_element_set_no": 999,
        "meta_rev_at_epoch": 22766,
        "meta_bstar": 0.00047418,
        "meta_mean_motion_dot": 0.00044963,
        "meta_mean_motion_ddot": 0,
        "tle_line1": "1 50058U 82092SW  25344.31406330  .00044963  00000+0  47418-3 0  9999",
        "tle_line2": "2 50058  82.6126  71.8794 0016490 107.0459 253.2608 15.63871955227666"
      },
      "geometry": {
        "type": "Point",
        "coordinates": [
          -112.21940852622876,
          24.56807131182792
        ]
      }
    },
    {
      "type": "Feature",
      "properties": {
        "norad_id": 50404,
        "name": "COSMOS 1408 DEB",
        "group": "cosmos-1408-debris",
        "lat": -43.93528769137724,
        "lon": 44.419561087128336,
        "alt_km": 419.9607706331599,
        "timestamp": "2025-12-10T23:33:13.088988+00:00",
        "meta_object_name": "COSMOS 1408 DEB",
        "meta_object_id": "1982-092ADS",
        "meta_epoch": "2025-12-10T01:55:59.645280",
        "meta_mean_motion": 15.13181066,
        "meta_eccentricity": 0.01731067,
        "meta_inclination": 82.2033,
        "meta_ra_of_asc_node": 217.7549,
        "meta_arg_of_pericenter": 208.0507,
        "meta_mean_anomaly": 151.1318,
        "meta_ephemeris_type": 0,
        "meta_classification_type": "U",
        "meta_norad_cat_id": 50404,
        "meta_element_set_no": 999,
        "meta_rev_at_epoch": 21153,
        "meta_bstar": 0.0036852181,
        "meta_mean_motion_dot": 0.00095791,
        "meta_mean_motion_ddot": 0,
        "tle_line1": "1 50404U 82092ADS 25344.08055145  .00095791  00000+0  36852-2 0  9996",
        "tle_line2": "2 50404  82.2033 217.7549 0173106 208.0507 151.1318 15.13181066211532"
      },
      "geometry": {
        "type": "Point",
        "coordinates": [
          44.419561087128336,
          -43.93528769137724
        ]
      }
    },
    {
      "type": "Feature",
      "properties": {
        "norad_id": 50621,
        "name": "COSMOS 1408 DEB",
        "group": "cosmos-1408-debris",
        "lat": -38.221073921566685,
        "lon": -98.09005171247547,
        "alt_km": 394.3616220401045,
        "timestamp": "2025-12-10T23:33:13.088999+00:00",
        "meta_object_name": "COSMOS 1408 DEB",
        "meta_object_id": "1982-092ALR",
        "meta_epoch": "2025-12-10T07:11:23.446752",
        "meta_mean_motion": 15.564597,
        "meta_eccentricity": 0.00288412,
        "meta_inclination": 82.5698,
        "meta_ra_of_asc_node": 76.7205,
        "meta_arg_of_pericenter": 161.3855,
        "meta_mean_anomaly": 198.8462,
        "meta_ephemeris_type": 0,
        "meta_classification_type": "U",
        "meta_norad_cat_id": 50621,
        "meta_element_set_no": 999,
        "meta_rev_at_epoch": 22212,
        "meta_bstar": 0.00053677944,
        "meta_mean_motion_dot": 0.00038838,
        "meta_mean_motion_ddot": 0,
        "tle_line1": "1 50621U 82092ALR 25344.29957693  .00038838  00000+0  53678-3 0  9994",
        "tle_line2": "2 50621  82.5698  76.7205 0028841 161.3855 198.8462 15.56459700222122"
      },
      "geometry": {
        "type": "Point",
        "coordinates": [
          -98.09005171247547,
          -38.221073921566685
        ]
      }
    }
  ]
}